{
"type": "FeatureCollection",
"name": "Area 2 Samarinda",
"features": [
{ "type": "Feature", "properties": { "Name": "Selalu Teh, Jakarta" }, "geometry": { "type": "Point", "coordinates": [ 117.0919599, -0.5254401, 0.0 ] } },
{ "type": "Feature", "properties": { "Name": "Selalu Teh, Kemuning" }, "geometry": { "type": "Point", "coordinates": [ 117.0962405, -0.5323695, 0.0 ] } },
{ "type": "Feature", "properties": { "Name": "Selalu Teh, Loa Buah" }, "geometry": { "type": "Point", "coordinates": [ 117.0742819, -0.5552689, 0.0 ] } },
{ "type": "Feature", "properties": { "Name": "Selalu Teh, Harapan Baru" }, "geometry": { "type": "Point", "coordinates": [ 117.1063769, -0.5397248, 0.0 ] } },
{ "type": "Feature", "properties": { "Name": "Selalu Teh, Loa Janan 2" }, "geometry": { "type": "Point", "coordinates": [ 117.087095, -0.5701119, 0.0 ] } },
{ "type": "Feature", "properties": { "Name": "Selalu Teh, Loa Janan 1" }, "geometry": { "type": "Point", "coordinates": [ 117.0851783, -0.578735, 0.0 ] } },
{ "type": "Feature", "properties": { "Name": "Selalu Teh, Loa Janan 3" }, "geometry": { "type": "Point", "coordinates": [ 117.0971798, -0.584454, 0.0 ] } },
{ "type": "Feature", "properties": { "Name": "Selalu Teh, Damanhuri" }, "geometry": { "type": "Point", "coordinates": [ 117.1808404, -0.4731966, 0.0 ] } },
{ "type": "Feature", "properties": { "Name": "Selalu Teh, Loa Kulu 2" }, "geometry": { "type": "Point", "coordinates": [ 117.024288, -0.5143504, 0.0 ] } },
{ "type": "Feature", "properties": { "Name": "Selalu Teh, KS Tubun" }, "geometry": { "type": "Point", "coordinates": [ 117.1399356, -0.4898241, 0.0 ] } },
{ "type": "Feature", "properties": { "Name": "Selalu Teh, Gatot Subroto" }, "geometry": { "type": "Point", "coordinates": [ 117.1540132, -0.4880179, 0.0 ] } },
{ "type": "Feature", "properties": { "Name": "Selalu Teh, Sultan Alimuddin" }, "geometry": { "type": "Point", "coordinates": [ 117.1656808, -0.5092713, 0.0 ] } },
{ "type": "Feature", "properties": { "Name": "Selalu Teh, Lempake" }, "geometry": { "type": "Point", "coordinates": [ 117.1953873, -0.4399433, 0.0 ] } },
{ "type": "Feature", "properties": { "Name": "Selalu Teh, M. Said" }, "geometry": { "type": "Point", "coordinates": [ 117.1124889, -0.4934476, 0.0 ] } },
{ "type": "Feature", "properties": { "Name": "Selalu Teh, S. Parman" }, "geometry": { "type": "Point", "coordinates": [ 117.1513137, -0.476925, 0.0 ] } },
{ "type": "Feature", "properties": { "Name": "Selalu Teh, Kadrie Oening" }, "geometry": { "type": "Point", "coordinates": [ 117.1352055, -0.4722047, 0.0 ] } },
{ "type": "Feature", "properties": { "Name": "Selalu Teh, Suryanata" }, "geometry": { "type": "Point", "coordinates": [ 117.1266785, -0.4829697, 0.0 ] } },
{ "type": "Feature", "properties": { "Name": "Selalu Teh, Bengkuring" }, "geometry": { "type": "Point", "coordinates": [ 117.1633138, -0.4265901, 0.0 ] } },
{ "type": "Feature", "properties": { "Name": "Selalu Teh, Lambung Mangkurat" }, "geometry": { "type": "Point", "coordinates": [ 117.1596094, -0.4895116, 0.0 ] } },
{ "type": "Feature", "properties": { "Name": "Selalu Teh, Makroman" }, "geometry": { "type": "Point", "coordinates": [ 117.2275207, -0.558282, 0.0 ] } },
{ "type": "Feature", "properties": { "Name": "Selalu Teh, Pelita" }, "geometry": { "type": "Point", "coordinates": [ 117.1838987, -0.5058881, 0.0 ] } },
{ "type": "Feature", "properties": { "Name": "Selalu Teh, Selili" }, "geometry": { "type": "Point", "coordinates": [ 117.159012, -0.5117763, 0.0 ] } },
{ "type": "Feature", "properties": { "Name": "Selalu Teh, Cendana" }, "geometry": { "type": "Point", "coordinates": [ 117.1237645, -0.4975432, 0.0 ] } },
{ "type": "Feature", "properties": { "Name": "Selalu Teh, Ulin" }, "geometry": { "type": "Point", "coordinates": [ 117.1158279, -0.5059473, 0.0 ] } },
{ "type": "Feature", "properties": { "Name": "Selalu Teh, Sentosa" }, "geometry": { "type": "Point", "coordinates": [ 117.1693823, -0.4745045, 0.0 ] } },
{ "type": "Feature", "properties": { "Name": "Selalu Teh, Biawan" }, "geometry": { "type": "Point", "coordinates": [ 117.1617724, -0.49681, 0.0 ] } },
{ "type": "Feature", "properties": { "Name": "Selalu Teh, Perjuangan" }, "geometry": { "type": "Point", "coordinates": [ 117.1563505, -0.4640597, 0.0 ] } },
{ "type": "Feature", "properties": { "Name": "Selalu Teh, Palaran" }, "geometry": { "type": "Point", "coordinates": [ 117.1687574, -0.5609778, 0.0 ] } },
{ "type": "Feature", "properties": { "Name": "Selalu Teh, Bung Tomo" }, "geometry": { "type": "Point", "coordinates": [ 117.1431548, -0.5084859, 0.0 ] } },
{ "type": "Feature", "properties": { "Name": "Selalu Teh, SCP" }, "geometry": { "type": "Point", "coordinates": [ 117.1552145, -0.5036128, 0.0 ] } },
{ "type": "Feature", "properties": { "Name": "Selalu Teh, Mangkupalas" }, "geometry": { "type": "Point", "coordinates": [ 117.148361, -0.523441, 0.0 ] } },
{ "type": "Feature", "properties": { "Name": "Selalu Teh, Gerilya" }, "geometry": { "type": "Point", "coordinates": [ 117.174941, -0.484374, 0.0 ] } }
]
}
